OBJECT_NAME,OBJECT_ID,EPOCH,MEAN_MOTION,ECCENTRICITY,INCLINATION,RA_OF_ASC_NODE,ARG_OF_PERICENTER,MEAN_ANOMALY,EPHEMERIS_TYPE,CLASSIFICATION_TYPE,NORAD_CAT_ID,ELEMENT_SET_NO,REV_AT_EPOCH,BSTAR,MEAN_MOTION_DOT,MEAN_MOTION_DDOT
KZ-11 R/B,2026-138H,2026-07-12T21:48:00.762624,15.43010363,.0377051,55.1520,167.7492,143.6026,219.1292,0,U,69628,999,389,.75497E-3,.78015E-2,.97501E-5
CENTISPACE-1 GROUP 05 OBJECT J,2026-138J,2026-07-12T11:41:08.954016,14.15842596,.00094615,55.1383,187.6938,339.1943,20.8645,0,U,69636,999,357,-.64615997E-4,-.281E-5,0
VICTUS HAZE PUMA,2026-142A,2026-07-12T21:02:21.240672,15.20839035,.0025043,97.4473,91.2070,274.5161,85.3213,0,U,69646,999,357,.10869E-3,.2346E-4,0
HOKUSHIN-1,1998-067YH,2026-07-12T07:53:44.048256,15.50906444,.00061407,51.6303,175.4569,319.8658,40.1877,0,U,69648,999,355,.24651945E-3,.14101E-3,0
STARLINK-37656,2026-143A,2026-07-12T16:44:11.943744,15.49207605,.0001051,97.2853,237.5560,102.9039,257.2329,0,U,69649,999,449,.37871E-3,.20573E-3,0
STARLINK-37646,2026-143B,2026-07-12T20:00:01.999008,15.49193103,.0001856,97.2849,237.8703,82.9171,5.9315,0,U,69650,999,458,-.19037E-3,-.10433E-3,0
STARLINK-37749,2026-143C,2026-07-12T20:00:01.999008,15.49218852,.0000884,97.2848,237.8537,131.0900,279.4262,0,U,69651,999,458,-.3025E-4,-.1737E-4,0
STARLINK-37819,2026-143D,2026-07-12T20:00:01.999008,15.49183559,.0001447,97.2846,237.8268,68.0121,278.1397,0,U,69652,999,458,-.1242E-3,-.6838E-4,0
STARLINK-37729,2026-143E,2026-07-12T20:00:01.999008,15.83260662,.0001598,97.2829,238.0934,195.1772,58.2294,0,U,69653,999,458,-.284E-3,-.60646E-3,0
STARLINK-37838,2026-143F,2026-07-12T20:00:01.999008,15.49183649,.00016,97.2854,237.8949,59.4801,91.6787,0,U,69654,999,458,-.87727E-4,-.4858E-4,0
STARLINK-37884,2026-143G,2026-07-12T20:00:01.999008,15.49181429,.0001027,97.2850,237.8066,86.5183,213.0477,0,U,69655,999,458,.28376E-4,.1453E-4,0
STARLINK-37876,2026-143H,2026-07-12T20:00:01.999008,15.49180499,.0001461,97.2848,237.8961,88.0479,60.7069,0,U,69656,999,448,-.68507E-4,-.3813E-4,0
STARLINK-37784,2026-143J,2026-07-12T20:00:01.999008,15.49182208,.0001409,97.2845,237.8238,77.0852,264.1212,0,U,69657,999,448,-.12406E-3,-.6831E-4,0
STARLINK-37851,2026-143K,2026-07-12T20:00:01.999008,15.49177430,.0000939,97.2849,237.8908,87.8003,48.9632,0,U,69658,999,447,.30475E-4,.1567E-4,0
STARLINK-37229,2026-143L,2026-07-12T20:00:01.999008,15.49183412,.0001485,97.2848,237.8435,89.7017,298.3892,0,U,69659,999,452,-.13176E-3,-.7249E-4,0
STARLINK-37556,2026-143M,2026-07-12T20:00:01.999008,15.49183535,.0001534,97.2851,237.8712,91.3412,0.6866,0,U,69660,999,452,-.46399E-4,-.2613E-4,0
STARLINK-37867,2026-143N,2026-07-12T20:00:01.999008,15.49203749,.0001943,97.2852,237.8920,83.7599,51.4707,0,U,69661,999,448,.22461E-3,.12151E-3,0
STARLINK-37852,2026-143P,2026-07-12T20:00:01.999008,15.49179678,.0001325,97.2846,237.8141,86.5015,231.7833,0,U,69662,999,448,-.1862E-6,-.101E-5,0
STARLINK-37554,2026-143Q,2026-07-12T20:00:01.999008,15.49179873,.0001164,97.2850,237.8667,79.8133,2.7382,0,U,69663,999,452,-.94045E-4,-.52E-4,0
STARLINK-37830,2026-143R,2026-07-12T20:00:01.999008,15.49182209,.0001662,97.2847,237.8303,89.5183,268.7792,0,U,69664,999,447,-.13178E-3,-.7249E-4,0
STARLINK-37837,2026-143S,2026-07-12T20:00:01.999008,15.48420944,.0002091,97.2847,237.8985,60.3830,80.5150,0,U,69665,999,448,-.52141E-1,-.245506E-1,0
STARLINK-37943,2026-143T,2026-07-12T20:00:01.999008,15.49183785,.0001717,97.2847,237.8324,78.7660,282.4893,0,U,69666,999,448,-.82593E-4,-.4579E-4,0
STARLINK-37941,2026-143U,2026-07-12T20:00:01.999008,15.49173876,.0001237,97.2850,237.8618,64.1973,7.4510,0,U,69667,999,448,-.83183E-4,-.4609E-4,0
STARLINK-37930,2026-143V,2026-07-12T20:00:01.999008,15.49182943,.0001386,97.2850,237.8634,82.9473,351.6819,0,U,69668,999,447,-.28308E-4,-.1629E-4,0
STARLINK-37945,2026-143W,2026-07-12T20:00:01.999008,15.49187813,.0001436,97.2849,237.8936,92.7921,53.7218,0,U,69669,999,448,-.13636E-3,-.7499E-4,0
STARLINK-37948,2026-143X,2026-07-12T15:52:09.298272,15.49214927,.0001126,97.2838,237.6072,105.7050,254.4325,0,U,69670,999,442,.65836E-3,.35911E-3,0
STARLINK-37949,2026-143Y,2026-07-12T20:00:01.999008,15.49183227,.0000794,97.2846,237.8383,61.3359,314.1828,0,U,69671,999,448,-.65955E-4,-.3675E-4,0
STARLINK-37946,2026-143Z,2026-07-12T20:00:01.999008,15.49177720,.0001562,97.2851,237.8729,75.2923,17.8873,0,U,69672,999,448,.38209E-4,.1987E-4,0
TJS-26A,2026-144A,2026-07-12T07:10:37.543296,1.00274367,.0004208,6.9538,323.2302,347.4913,194.6526,0,U,69674,999,19,0,-.341E-5,0
CZ-7A R/B,2026-144B,2026-07-12T18:08:30.631776,2.56142737,.7120838,19.4509,316.1797,194.6148,122.3205,0,U,69675,999,50,.81463E-3,.705425E-2,-.12286E-4
