KZ-11 R/B               
1 69628U 26138H   26193.90834216  .00780150  97501-5  75497-3 0  9998
2 69628  55.1520 167.7492 0377051 143.6026 219.1292 15.43010363  3894
CENTISPACE-1 GROUP 05 O*
1 69636U 26138J   26193.48690919 -.00000281  00000+0 -64616-4 0  9996
2 69636  55.1383 187.6938 0009461 339.1943  20.8645 14.15842596  3576
VICTUS HAZE PUMA        
1 69646U 26142A   26193.87663473  .00002346  00000+0  10869-3 0  9992
2 69646  97.4473  91.2070 0025043 274.5161  85.3213 15.20839035  3579
HOKUSHIN-1              
1 69648U 98067YH  26193.32898204  .00014101  00000+0  24652-3 0  9998
2 69648  51.6303 175.4569 0006140 319.8658  40.1877 15.50906444  3559
STARLINK-37656          
1 69649U 26143A   26193.69736046  .00020573  00000+0  37871-3 0  9997
2 69649  97.2853 237.5560 0001051 102.9039 257.2329 15.49207605  4495
STARLINK-37646          
1 69650U 26143B   26193.83335647 -.00010433  00000+0 -19037-3 0  9997
2 69650  97.2849 237.8703 0001856  82.9171   5.9315 15.49193103  4581
STARLINK-37749          
1 69651U 26143C   26193.83335647 -.00001737  00000+0 -30250-4 0  9996
2 69651  97.2848 237.8537 0000884 131.0900 279.4262 15.49218852  4580
STARLINK-37819          
1 69652U 26143D   26193.83335647 -.00006838  00000+0 -12420-3 0  9992
2 69652  97.2846 237.8268 0001447  68.0121 278.1397 15.49183559  4580
STARLINK-37729          
1 69653U 26143E   26193.83335647 -.00060646  00000+0 -28400-3 0  9995
2 69653  97.2829 238.0934 0001598 195.1772  58.2294 15.83260662  4588
STARLINK-37838          
1 69654U 26143F   26193.83335647 -.00004858  00000+0 -87727-4 0  9997
2 69654  97.2854 237.8949 0001600  59.4801  91.6787 15.49183649  4588
STARLINK-37884          
1 69655U 26143G   26193.83335647  .00001453  00000+0  28376-4 0  9999
2 69655  97.2850 237.8066 0001027  86.5183 213.0477 15.49181429  4582
STARLINK-37876          
1 69656U 26143H   26193.83335647 -.00003813  00000+0 -68507-4 0  9994
2 69656  97.2848 237.8961 0001461  88.0479  60.7069 15.49180499  4480
STARLINK-37784          
1 69657U 26143J   26193.83335647 -.00006831  00000+0 -12406-3 0  9994
2 69657  97.2845 237.8238 0001409  77.0852 264.1212 15.49182208  4480
STARLINK-37851          
1 69658U 26143K   26193.83335647  .00001567  00000+0  30475-4 0  9991
2 69658  97.2849 237.8908 0000939  87.8003  48.9632 15.49177430  4477
STARLINK-37229          
1 69659U 26143L   26193.83335647 -.00007249  00000+0 -13176-3 0  9995
2 69659  97.2848 237.8435 0001485  89.7017 298.3892 15.49183412  4527
STARLINK-37556          
1 69660U 26143M   26193.83335647 -.00002613  00000+0 -46399-4 0  9991
2 69660  97.2851 237.8712 0001534  91.3412   0.6866 15.49183535  4525
STARLINK-37867          
1 69661U 26143N   26193.83335647  .00012151  00000+0  22461-3 0  9991
2 69661  97.2852 237.8920 0001943  83.7599  51.4707 15.49203749  4486
STARLINK-37852          
1 69662U 26143P   26193.83335647 -.00000101  00000+0 -18620-6 0  9991
2 69662  97.2846 237.8141 0001325  86.5015 231.7833 15.49179678  4489
STARLINK-37554          
1 69663U 26143Q   26193.83335647 -.00005200  00000+0 -94045-4 0  9990
2 69663  97.2850 237.8667 0001164  79.8133   2.7382 15.49179873  4522
STARLINK-37830          
1 69664U 26143R   26193.83335647 -.00007249  00000+0 -13178-3 0  9993
2 69664  97.2847 237.8303 0001662  89.5183 268.7792 15.49182209  4472
STARLINK-37837          
1 69665U 26143S   26193.83335647 -.02455060  00000+0 -52141-1 0  9995
2 69665  97.2847 237.8985 0002091  60.3830  80.5150 15.48420944  4481
STARLINK-37943          
1 69666U 26143T   26193.83335647 -.00004579  00000+0 -82593-4 0  9996
2 69666  97.2847 237.8324 0001717  78.7660 282.4893 15.49183785  4484
STARLINK-37941          
1 69667U 26143U   26193.83335647 -.00004609  00000+0 -83183-4 0  9997
2 69667  97.2850 237.8618 0001237  64.1973   7.4510 15.49173876  4489
STARLINK-37930          
1 69668U 26143V   26193.83335647 -.00001629  00000+0 -28308-4 0  9995
2 69668  97.2850 237.8634 0001386  82.9473 351.6819 15.49182943  4476
STARLINK-37945          
1 69669U 26143W   26193.83335647 -.00007499  00000+0 -13636-3 0  9994
2 69669  97.2849 237.8936 0001436  92.7921  53.7218 15.49187813  4488
STARLINK-37948          
1 69670U 26143X   26193.66121873  .00035911  00000+0  65836-3 0  9998
2 69670  97.2838 237.6072 0001126 105.7050 254.4325 15.49214927  4421
STARLINK-37949          
1 69671U 26143Y   26193.83335647 -.00003675  00000+0 -65955-4 0  9991
2 69671  97.2846 237.8383 0000794  61.3359 314.1828 15.49183227  4483
STARLINK-37946          
1 69672U 26143Z   26193.83335647  .00001987  00000+0  38209-4 0  9996
2 69672  97.2851 237.8729 0001562  75.2923  17.8873 15.49177720  4487
TJS-26A                 
1 69674U 26144A   26193.29904564 -.00000341  00000+0  00000+0 0  9996
2 69674   6.9538 323.2302 0004208 347.4913 194.6526  1.00274367   198
CZ-7A R/B               
1 69675U 26144B   26193.75591009  .00705425 -12286-4  81463-3 0  9999
2 69675  19.4509 316.1797 7120838 194.6148 122.3205  2.56142737   506
